NORAD_CAT_ID,OBJECT_NAME,OBJECT_TYPE,EPOCH,MEAN_MOTION,ECCENTRICITY,INCLINATION,RA_OF_ASC_NODE,ARG_OF_PERICENTER,MEAN_ANOMALY,BSTAR,MEAN_MOTION_DOT,MEAN_MOTION_DDOT,TLE_LINE0,TLE_LINE1,TLE_LINE2,SEMIMAJOR_AXIS,PERIOD,APOGEE,PERIGEE,DECAYED
52363.0,STARLINK-3830,PAYLOAD,2023-08-21 00:00:19,15.08849791,0.0001155,53.2173,61.6392,84.6441,275.4683,0.00017502,2.499e-05,0.0,0 STARLINK-3830,1 52363U 22045AJ  23233.00022857  .00002499  00000-0  17502-3 0  9991,2 52363  53.2173  61.6392 0001155  84.6441 275.4683 15.08849791 75131,6917.85,95.437,540.514,538.916,0.0
52363.0,STARLINK-3830,PAYLOAD,2023-08-21 19:04:58,15.08838977,0.0001268,53.218,58.0735,74.2756,285.8376,3.2504e-05,2.29e-06,0.0,0 STARLINK-3830,1 52363U 22045AJ  23233.79512165  .00000229  00000-0  32504-4 0  9992,2 52363  53.2180  58.0735 0001268  74.2756 285.8376 15.08838977 75250,6917.884,95.438,540.626,538.871,0.0
52363.0,STARLINK-3830,PAYLOAD,2023-08-23 12:25:00,15.08836654,0.0001225,53.2189,50.3404,95.9695,264.1436,8.0339e-05,9.91e-06,0.0,0 STARLINK-3830,1 52363U 22045AJ  23235.51736282  .00000991  00000-0  80339-4 0  9997,2 52363  53.2189  50.3404 0001225  95.9695 264.1436 15.08836654 75518,6917.891,95.438,540.603,538.908,0.0
52363.0,STARLINK-3830,PAYLOAD,2023-08-24 12:15:47,15.08836573,0.0001206,53.2183,45.8798,95.8289,264.2841,7.0819e-05,8.39e-06,0.0,0 STARLINK-3830,1 52363U 22045AJ  23236.51096547  .00000839  00000-0  70819-4 0  9994,2 52363  53.2183  45.8798 0001206  95.8289 264.2841 15.08836573 75661,6917.891,95.438,540.59,538.922,0.0
52363.0,STARLINK-3830,PAYLOAD,2023-08-25 10:31:11,15.0883697,0.0001152,53.2183,41.7166,90.9863,269.1261,-7.6793e-06,-4.1e-06,0.0,0 STARLINK-3830,1 52363U 22045AJ  23237.43833045 -.00000410  00000-0 -76793-5 0  9993,2 52363  53.2183  41.7166 0001152  90.9863 269.1261 15.08836970 75806,6917.89,95.438,540.552,538.958,0.0
52363.0,STARLINK-3830,PAYLOAD,2023-08-25 12:06:34,15.08837221,0.0001133,53.2181,41.4193,88.3986,271.7136,-5.8698e-06,-3.81e-06,0.0,0 STARLINK-3830,1 52363U 22045AJ  23237.50457036 -.00000381  00000-0 -58698-5 0  9994,2 52363  53.2181  41.4193 0001133  88.3986 271.7136 15.08837221 75818,6917.889,95.438,540.538,538.97,0.0
52363.0,STARLINK-3830,PAYLOAD,2023-08-25 18:28:07,15.08841699,0.0001149,53.2181,40.2296,87.8573,272.2551,2.8648e-05,1.68e-06,0.0,0 STARLINK-3830,1 52363U 22045AJ  23237.76952666  .00000168  00000-0  28648-4 0  9993,2 52363  53.2181  40.2296 0001149  87.8573 272.2551 15.08841699 75857,6917.875,95.437,540.535,538.945,0.0
52363.0,STARLINK-3830,PAYLOAD,2023-08-25 23:14:16,15.08845539,0.0001146,53.2182,39.3376,86.8159,273.2964,5.7122e-05,6.22e-06,0.0,0 STARLINK-3830,1 52363U 22045AJ  23237.96824310  .00000622  00000-0  57122-4 0  9993,2 52363  53.2182  39.3376 0001146  86.8159 273.2964 15.08845539 75881,6917.863,95.437,540.521,538.936,0.0
52363.0,STARLINK-3830,PAYLOAD,2023-08-26 10:21:58,15.08833037,0.00012,53.2186,37.2567,85.3381,274.7748,6.0615e-05,6.77e-06,0.0,0 STARLINK-3830,1 52363U 22045AJ  23238.43193142  .00000677  00000-0  60615-4 0  9999,2 52363  53.2186  37.2567 0001200  85.3381 274.7748 15.08833037 75950,6917.902,95.438,540.597,538.937,0.0
52363.0,STARLINK-3830,PAYLOAD,2023-08-26 18:18:54,15.08841323,0.000137,53.2192,35.7724,17.8111,342.2929,9.4546e-05,1.217e-05,0.0,0 STARLINK-3830,1 52363U 22045AJ  23238.76312746  .00001217  00000-0  94546-4 0  9999,2 52363  53.2192  35.7724 0001370  17.8111 342.2929 15.08841323 76000,6917.876,95.437,540.689,538.794,0.0
52363.0,STARLINK-3830,PAYLOAD,2023-08-27 10:12:45,15.08834689,0.0001264,53.219,32.7988,47.2724,312.8375,0.00014721,2.055e-05,0.0,0 STARLINK-3830,1 52363U 22045AJ  23239.42552915  .00002055  00000-0  14721-3 0  9994,2 52363  53.2190  32.7988 0001264  47.2724 312.8375 15.08834689 76102,6917.897,95.438,540.636,538.887,0.0
52363.0,STARLINK-3830,PAYLOAD,2023-08-27 16:34:18,15.08851157,0.0001461,53.2192,31.6096,66.2241,293.8904,-9.9098e-05,-1.865e-05,0.0,0 STARLINK-3830,1 52363U 22045AJ  23239.69048676 -.00001865  00000-0 -99098-4 0  9998,2 52363  53.2192  31.6096 0001461  66.2241 293.8904 15.08851157 76145,6917.846,95.437,540.722,538.701,0.0
52363.0,STARLINK-3830,PAYLOAD,2023-08-28 10:03:32,15.08839848,0.0001386,53.2189,28.3381,81.0503,279.0646,3.8729e-05,3.28e-06,0.0,0 STARLINK-3830,1 52363U 22045AJ  23240.41912835  .00000328  00000-0  38729-4 0  9992,2 52363  53.2189  28.3381 0001386  81.0503 279.0646 15.08839848 76257,6917.881,95.438,540.705,538.787,0.0
52363.0,STARLINK-3830,PAYLOAD,2023-08-28 16:25:05,15.08843311,0.0001405,53.2195,27.1472,95.208,264.9073,3.343e-05,2.44e-06,0.0,0 STARLINK-3830,1 52363U 22045AJ  23240.68408579  .00000244  00000-0  33430-4 0  9997,2 52363  53.2195  27.1472 0001405  95.2080 264.9073 15.08843311 76292,6917.87,95.437,540.707,538.763,0.0
52363.0,STARLINK-3830,PAYLOAD,2023-08-29 16:15:52,15.08838924,0.0001382,53.2195,22.6873,94.6189,265.4961,2.3897e-05,9.2e-07,0.0,0 STARLINK-3830,1 52363U 22045AJ  23241.67768875  .00000092  00000-0  23897-4 0  9992,2 52363  53.2195  22.6873 0001382  94.6189 265.4961 15.08838924 76447,6917.884,95.438,540.705,538.793,0.0
52363.0,STARLINK-3830,PAYLOAD,2023-08-30 16:06:39,15.0884056,0.0001375,53.2196,18.2257,96.5832,263.5316,2.677e-05,1.38e-06,0.0,0 STARLINK-3830,1 52363U 22045AJ  23242.67128837  .00000138  00000-0  26770-4 0  9995,2 52363  53.2196  18.2257 0001375  96.5832 263.5316 15.08840560 76591,6917.879,95.438,540.695,538.792,0.0
52363.0,STARLINK-3830,PAYLOAD,2023-08-30 20:52:48,15.08844309,0.0001212,53.2182,17.3342,90.7942,269.3189,8.7964e-05,1.113e-05,0.0,0 STARLINK-3830,1 52363U 22045AJ  23242.87000387  .00001113  00000-0  87964-4 0  9992,2 52363  53.2182  17.3342 0001212  90.7942 269.3189 15.08844309 76620,6917.867,95.437,540.571,538.894,0.0
52363.0,STARLINK-3830,PAYLOAD,2023-08-31 09:35:54,15.08826184,9.31e-05,53.2195,14.9577,76.2532,283.8564,-5.6771e-05,-1.191e-05,0.0,0 STARLINK-3830,1 52363U 22045AJ  23243.39994179 -.00001191  00000-0 -56771-4 0  9991,2 52363  53.2195  14.9577 0000931  76.2532 283.8564 15.08826184 76706,6917.923,95.438,540.432,539.144,0.0
52363.0,STARLINK-3830,PAYLOAD,2023-09-01 01:29:45,15.08836204,0.0001439,53.2189,11.983,96.239,263.8766,3.4753e-05,2.65e-06,0.0,0 STARLINK-3830,1 52363U 22045AJ  23244.06233477  .00000265  00000-0  34753-4 0  9998,2 52363  53.2189  11.9830 0001439  96.2390 263.8766 15.08836204 76803,6917.892,95.438,540.752,538.762,0.0
52363.0,STARLINK-3830,PAYLOAD,2023-09-01 09:26:41,15.08839054,0.000139,53.2171,10.494,91.3689,268.7462,4.0571e-05,3.58e-06,0.0,0 STARLINK-3830,1 52363U 22045AJ  23244.39353350  .00000358  00000-0  40571-4 0  9995,2 52363  53.2171  10.4940 0001390  91.3689 268.7462 15.08839054 76851,6917.883,95.438,540.71,538.787,0.0
52363.0,STARLINK-3830,PAYLOAD,2023-09-02 09:17:28,15.088388,0.0001586,53.2171,6.0326,96.4486,263.6686,0.00011244,1.502e-05,0.0,0 STARLINK-3830,1 52363U 22045AJ  23245.38713198  .00001502  00000-0  11244-3 0  9991,2 52363  53.2171   6.0326 0001586  96.4486 263.6686 15.08838800 77006,6917.884,95.438,540.846,538.652,0.0
52363.0,STARLINK-3830,PAYLOAD,2023-09-02 12:28:14,15.08840686,0.0001361,53.2182,5.4385,94.7642,265.3505,5.5201e-05,5.91e-06,0.0,0 STARLINK-3830,1 52363U 22045AJ  23245.51961259  .00000591  00000-0  55201-4 0  9998,2 52363  53.2182   5.4385 0001361  94.7642 265.3505 15.08840686 77028,6917.878,95.438,540.685,538.802,0.0
52363.0,STARLINK-3830,PAYLOAD,2023-09-02 15:39:00,15.08843821,0.0001168,53.2178,4.8435,88.2104,271.9022,6.4196e-05,7.34e-06,0.0,0 STARLINK-3830,1 52363U 22045AJ  23245.65209023  .00000734  00000-0  64196-4 0  9999,2 52363  53.2178   4.8435 0001168  88.2104 271.9022 15.08843821 77041,6917.869,95.437,540.542,538.926,0.0
52363.0,STARLINK-3830,PAYLOAD,2023-09-03 13:54:24,15.08845854,0.0001255,53.2174,0.6821,88.2427,271.8709,8.1296e-05,1.006e-05,0.0,0 STARLINK-3830,1 52363U 22045AJ  23246.57944683  .00001006  00000-0  81296-4 0  9992,2 52363  53.2174   0.6821 0001255  88.2427 271.8709 15.08845854 77189,6917.862,95.437,540.596,538.859,0.0
52363.0,STARLINK-3830,PAYLOAD,2023-09-04 07:23:39,15.0883699,0.0001094,53.2174,357.4096,88.096,272.0158,-6.6768e-06,-3.94e-06,0.0,0 STARLINK-3830,1 52363U 22045AJ  23247.30809536 -.00000394  00000-0 -66768-5 0  9990,2 52363  53.2174 357.4096 0001094  88.0960 272.0158 15.08836990 77291,6917.89,95.438,540.511,538.998,0.0
52363.0,STARLINK-3830,PAYLOAD,2023-09-04 13:45:12,15.08834394,0.0001235,53.2177,356.2201,85.7978,274.3155,-3.3606e-05,-8.23e-06,0.0,0 STARLINK-3830,1 52363U 22045AJ  23247.57305808 -.00000823  00000-0 -33606-4 0  9993,2 52363  53.2177 356.2201 0001235  85.7978 274.3155 15.08834394 77332,6917.898,95.438,540.617,538.908,0.0
52363.0,STARLINK-3830,PAYLOAD,2023-09-05 00:52:53,15.08849014,0.0001337,53.2195,354.1375,99.9491,260.1652,7.4262e-05,8.94e-06,0.0,0 STARLINK-3830,1 52363U 22045AJ  23248.03672491  .00000894  00000-0  74262-4 0  9999,2 52363  53.2195 354.1375 0001337  99.9491 260.1652 15.08849014 77409,6917.853,95.437,540.643,538.793,0.0
52363.0,STARLINK-3830,PAYLOAD,2023-09-05 07:14:25,15.08851565,0.000105,53.2179,352.9509,76.5601,283.5508,0.00011121,1.483e-05,0.0,0 STARLINK-3830,1 52363U 22045AJ  23248.30167961  .00001483  00000-0  11121-3 0  9999,2 52363  53.2179 352.9509 0001050  76.5601 283.5508 15.08851565 77449,6917.845,95.437,540.436,538.984,0.0
52363.0,STARLINK-3830,PAYLOAD,2023-09-06 07:05:12,15.08839664,0.0001206,53.2188,348.4889,103.0562,257.0565,0.0001321,1.815e-05,0.0,0 STARLINK-3830,1 52363U 22045AJ  23249.29528523  .00001815  00000-0  13210-3 0  9993,2 52363  53.2188 348.4889 0001206 103.0562 257.0565 15.08839664 77596,6917.881,95.438,540.581,538.912,0.0
52363.0,STARLINK-3830,PAYLOAD,2023-09-07 06:56:00,15.08837145,9.59e-05,53.2177,344.0274,89.0802,271.03,-0.00017604,-3.088e-05,0.0,0 STARLINK-3830,1 52363U 22045AJ  23250.28889995 -.00003088  00000-0 -17604-3 0  9994,2 52363  53.2177 344.0274 0000959  89.0802 271.0300 15.08837145 77740,6917.889,95.438,540.418,539.091,0.0
